STARLINK-36733          
1 67811U 26032Q   26064.27686919  .00202837  00000+0  10322-2 0  9993
2 67811  97.2823 250.6192 0001349  54.1072 306.0322 15.80881819  4095
STARLINK-36377          
1 67812U 26032R   26064.27369715  .00186928  00000+0  95341-3 0  9993
2 67812  97.2828 250.6241 0001368  40.1682 319.9687 15.80872403  4095
STARLINK-36732          
1 67813U 26032S   26064.27466884  .00174351  00000+0  89102-3 0  9994
2 67813  97.2826 250.6214 0001445  81.2842 278.8590 15.80862182  4093
STARLINK-36767          
1 67814U 26032T   26064.22859635  .00257394  00000+0  16688-2 0  9997
2 67814  97.2834 250.5311 0001210  72.9172 287.2226 15.75276247  4087
STARLINK-36797          
1 67815U 26032U   26064.25003472  .00004845  00000+0  33339-4 0  9996
2 67815  97.2839 250.5771 0001651  95.0376  76.5584 15.75184693  4005
STARLINK-36343          
1 67816U 26032V   26064.27106670  .00187737  00000+0  95769-3 0  9999
2 67816  97.2834 250.6259 0001381  39.2105 320.9263 15.80866790  4093
STARLINK-36756          
1 67817U 26032W   26064.25003472  .00011584  00000+0  78471-4 0  9992
2 67817  97.2840 250.5968 0001497  95.3852 126.2073 15.75176316  4062
STARLINK-36346          
1 67818U 26032X   26064.26560252  .00197139  00000+0  10040-2 0  9995
2 67818  97.2838 250.6343 0001227  90.7644 269.3765 15.80878623  4093
STARLINK-36788          
1 67819U 26032Y   26064.22188158 -.00036003  00000+0 -24183-3 0  9991
2 67819  97.2837 250.5402 0001292  73.1155 287.0252 15.75161243  4086
STARLINK-36353          
1 67820U 26032Z   26064.25003472  .00034166  00000+0  22919-3 0  9992
2 67820  97.2838 250.5800 0001439  72.6781 108.9154 15.75172418  4069
STARLINK-36644          
1 67821U 26033A   26064.08559224  .00272270  00000+0  12519-2 0  9990
2 67821  42.9979 299.7412 0002467 244.5887 115.4730 15.82073708  3899
STARLINK-36643          
1 67822U 26033B   26064.08484246  .00281790  00000+0  12937-2 0  9993
2 67822  42.9977 299.7358 0002488 252.3422 107.7178 15.82081591  3891
STARLINK-36646          
1 67823U 26033C   26064.25003472  .00119265  00000+0  56204-3 0  9994
2 67823  42.9983 298.7134 0002266 247.7921 338.4837 15.81980840  3952
STARLINK-36647          
1 67824U 26033D   26064.02022250  .00421420  00000+0  19049-2 0  9999
2 67824  42.9973 300.1109 0001031 324.4434  35.6369 15.82050561  3880
STARLINK-36648          
1 67825U 26033E   26064.01946167  .00273346  00000+0  12557-2 0  9990
2 67825  42.9968 300.1051 0002074 264.7519  95.3116 15.82091372  3887
STARLINK-35865          
1 67826U 26033F   26064.01872262  .00472108  00000+0  21185-2 0  9999
2 67826  42.9970 300.0985 0001692 302.0354  58.0353 15.82077616  3888
