[{"OBJECT_NAME":"STARLINK-36733","OBJECT_ID":"2026-032Q","EPOCH":"2026-03-05T06:38:41.498016","MEAN_MOTION":15.80881819,"ECCENTRICITY":0.00013494,"INCLINATION":97.2823,"RA_OF_ASC_NODE":250.6192,"ARG_OF_PERICENTER":54.1072,"MEAN_ANOMALY":306.0322,"EPHEMERIS_TYPE":0,"CLASSIFICATION_TYPE":"U","NORAD_CAT_ID":67811,"ELEMENT_SET_NO":999,"REV_AT_EPOCH":409,"BSTAR":0.0010321527,"MEAN_MOTION_DOT":0.00202837,"MEAN_MOTION_DDOT":0},{"OBJECT_NAME":"STARLINK-36377","OBJECT_ID":"2026-032R","EPOCH":"2026-03-05T06:34:07.433760","MEAN_MOTION":15.80872403,"ECCENTRICITY":0.00013689,"INCLINATION":97.2828,"RA_OF_ASC_NODE":250.6241,"ARG_OF_PERICENTER":40.1682,"MEAN_ANOMALY":319.9687,"EPHEMERIS_TYPE":0,"CLASSIFICATION_TYPE":"U","NORAD_CAT_ID":67812,"ELEMENT_SET_NO":999,"REV_AT_EPOCH":409,"BSTAR":0.00095341374,"MEAN_MOTION_DOT":0.00186928,"MEAN_MOTION_DDOT":0},{"OBJECT_NAME":"STARLINK-36732","OBJECT_ID":"2026-032S","EPOCH":"2026-03-05T06:35:31.387776","MEAN_MOTION":15.80862182,"ECCENTRICITY":0.00014455,"INCLINATION":97.2826,"RA_OF_ASC_NODE":250.6214,"ARG_OF_PERICENTER":81.2842,"MEAN_ANOMALY":278.859,"EPHEMERIS_TYPE":0,"CLASSIFICATION_TYPE":"U","NORAD_CAT_ID":67813,"ELEMENT_SET_NO":999,"REV_AT_EPOCH":409,"BSTAR":0.00089101661,"MEAN_MOTION_DOT":0.00174351,"MEAN_MOTION_DDOT":0},{"OBJECT_NAME":"STARLINK-36767","OBJECT_ID":"2026-032T","EPOCH":"2026-03-05T05:29:10.724640","MEAN_MOTION":15.75276247,"ECCENTRICITY":0.00012107,"INCLINATION":97.2834,"RA_OF_ASC_NODE":250.5311,"ARG_OF_PERICENTER":72.9172,"MEAN_ANOMALY":287.2226,"EPHEMERIS_TYPE":0,"CLASSIFICATION_TYPE":"U","NORAD_CAT_ID":67814,"ELEMENT_SET_NO":999,"REV_AT_EPOCH":408,"BSTAR":0.0016688203,"MEAN_MOTION_DOT":0.00257394,"MEAN_MOTION_DDOT":0},{"OBJECT_NAME":"STARLINK-36797","OBJECT_ID":"2026-032U","EPOCH":"2026-03-05T06:00:02.999808","MEAN_MOTION":15.75184693,"ECCENTRICITY":0.00016515,"INCLINATION":97.2839,"RA_OF_ASC_NODE":250.5771,"ARG_OF_PERICENTER":95.0376,"MEAN_ANOMALY":76.5584,"EPHEMERIS_TYPE":0,"CLASSIFICATION_TYPE":"U","NORAD_CAT_ID":67815,"ELEMENT_SET_NO":999,"REV_AT_EPOCH":400,"BSTAR":3.3338807e-5,"MEAN_MOTION_DOT":4.845e-5,"MEAN_MOTION_DDOT":0},{"OBJECT_NAME":"STARLINK-36343","OBJECT_ID":"2026-032V","EPOCH":"2026-03-05T06:30:20.162880","MEAN_MOTION":15.8086679,"ECCENTRICITY":0.00013816,"INCLINATION":97.2834,"RA_OF_ASC_NODE":250.6259,"ARG_OF_PERICENTER":39.2105,"MEAN_ANOMALY":320.9263,"EPHEMERIS_TYPE":0,"CLASSIFICATION_TYPE":"U","NORAD_CAT_ID":67816,"ELEMENT_SET_NO":999,"REV_AT_EPOCH":409,"BSTAR":0.00095769308,"MEAN_MOTION_DOT":0.00187737,"MEAN_MOTION_DDOT":0},{"OBJECT_NAME":"STARLINK-36756","OBJECT_ID":"2026-032W","EPOCH":"2026-03-05T06:00:02.999808","MEAN_MOTION":15.75176316,"ECCENTRICITY":0.00014973,"INCLINATION":97.284,"RA_OF_ASC_NODE":250.5968,"ARG_OF_PERICENTER":95.3852,"MEAN_ANOMALY":126.2073,"EPHEMERIS_TYPE":0,"CLASSIFICATION_TYPE":"U","NORAD_CAT_ID":67817,"ELEMENT_SET_NO":999,"REV_AT_EPOCH":406,"BSTAR":7.8471167e-5,"MEAN_MOTION_DOT":0.00011584,"MEAN_MOTION_DDOT":0},{"OBJECT_NAME":"STARLINK-36346","OBJECT_ID":"2026-032X","EPOCH":"2026-03-05T06:22:28.057728","MEAN_MOTION":15.80878623,"ECCENTRICITY":0.00012273,"INCLINATION":97.2838,"RA_OF_ASC_NODE":250.6343,"ARG_OF_PERICENTER":90.7644,"MEAN_ANOMALY":269.3765,"EPHEMERIS_TYPE":0,"CLASSIFICATION_TYPE":"U","NORAD_CAT_ID":67818,"ELEMENT_SET_NO":999,"REV_AT_EPOCH":409,"BSTAR":0.0010039856,"MEAN_MOTION_DOT":0.00197139,"MEAN_MOTION_DDOT":0},{"OBJECT_NAME":"STARLINK-36788","OBJECT_ID":"2026-032Y","EPOCH":"2026-03-05T05:19:30.568512","MEAN_MOTION":15.75161243,"ECCENTRICITY":0.00012924,"INCLINATION":97.2837,"RA_OF_ASC_NODE":250.5402,"ARG_OF_PERICENTER":73.1155,"MEAN_ANOMALY":287.0252,"EPHEMERIS_TYPE":0,"CLASSIFICATION_TYPE":"U","NORAD_CAT_ID":67819,"ELEMENT_SET_NO":999,"REV_AT_EPOCH":408,"BSTAR":-0.00024182776,"MEAN_MOTION_DOT":-0.00036003,"MEAN_MOTION_DDOT":0},{"OBJECT_NAME":"STARLINK-36353","OBJECT_ID":"2026-032Z","EPOCH":"2026-03-05T06:00:02.999808","MEAN_MOTION":15.75172418,"ECCENTRICITY":0.00014392,"INCLINATION":97.2838,"RA_OF_ASC_NODE":250.58,"ARG_OF_PERICENTER":72.6781,"MEAN_ANOMALY":108.9154,"EPHEMERIS_TYPE":0,"CLASSIFICATION_TYPE":"U","NORAD_CAT_ID":67820,"ELEMENT_SET_NO":999,"REV_AT_EPOCH":406,"BSTAR":0.0002291897,"MEAN_MOTION_DOT":0.00034166,"MEAN_MOTION_DDOT":0},{"OBJECT_NAME":"STARLINK-36644","OBJECT_ID":"2026-033A","EPOCH":"2026-03-05T02:03:15.169536","MEAN_MOTION":15.82073708,"ECCENTRICITY":0.00024677,"INCLINATION":42.9979,"RA_OF_ASC_NODE":299.7412,"ARG_OF_PERICENTER":244.5887,"MEAN_ANOMALY":115.473,"EPHEMERIS_TYPE":0,"CLASSIFICATION_TYPE":"U","NORAD_CAT_ID":67821,"ELEMENT_SET_NO":999,"REV_AT_EPOCH":389,"BSTAR":0.0012518773,"MEAN_MOTION_DOT":0.0027227,"MEAN_MOTION_DDOT":0},{"OBJECT_NAME":"STARLINK-36643","OBJECT_ID":"2026-033B","EPOCH":"2026-03-05T02:02:10.388544","MEAN_MOTION":15.82081591,"ECCENTRICITY":0.0002488,"INCLINATION":42.9977,"RA_OF_ASC_NODE":299.7358,"ARG_OF_PERICENTER":252.3422,"MEAN_ANOMALY":107.7178,"EPHEMERIS_TYPE":0,"CLASSIFICATION_TYPE":"U","NORAD_CAT_ID":67822,"ELEMENT_SET_NO":999,"REV_AT_EPOCH":389,"BSTAR":0.0012936505,"MEAN_MOTION_DOT":0.0028179,"MEAN_MOTION_DDOT":0},{"OBJECT_NAME":"STARLINK-36646","OBJECT_ID":"2026-033C","EPOCH":"2026-03-05T06:00:02.999808","MEAN_MOTION":15.8198084,"ECCENTRICITY":0.00022661,"INCLINATION":42.9983,"RA_OF_ASC_NODE":298.7134,"ARG_OF_PERICENTER":247.7921,"MEAN_ANOMALY":338.4837,"EPHEMERIS_TYPE":0,"CLASSIFICATION_TYPE":"U","NORAD_CAT_ID":67823,"ELEMENT_SET_NO":999,"REV_AT_EPOCH":395,"BSTAR":0.00056203951,"MEAN_MOTION_DOT":0.00119265,"MEAN_MOTION_DDOT":0},{"OBJECT_NAME":"STARLINK-36647","OBJECT_ID":"2026-033D","EPOCH":"2026-03-05T00:29:07.224000","MEAN_MOTION":15.82050561,"ECCENTRICITY":0.00010319,"INCLINATION":42.9973,"RA_OF_ASC_NODE":300.1109,"ARG_OF_PERICENTER":324.4434,"MEAN_ANOMALY":35.6369,"EPHEMERIS_TYPE":0,"CLASSIFICATION_TYPE":"U","NORAD_CAT_ID":67824,"ELEMENT_SET_NO":999,"REV_AT_EPOCH":388,"BSTAR":0.001904881,"MEAN_MOTION_DOT":0.0042142,"MEAN_MOTION_DDOT":0},{"OBJECT_NAME":"STARLINK-36648","OBJECT_ID":"2026-033E","EPOCH":"2026-03-05T00:28:01.488288","MEAN_MOTION":15.82091372,"ECCENTRICITY":0.00020741,"INCLINATION":42.9968,"RA_OF_ASC_NODE":300.1051,"ARG_OF_PERICENTER":264.7519,"MEAN_ANOMALY":95.3116,"EPHEMERIS_TYPE":0,"CLASSIFICATION_TYPE":"U","NORAD_CAT_ID":67825,"ELEMENT_SET_NO":999,"REV_AT_EPOCH":388,"BSTAR":0.0012556548,"MEAN_MOTION_DOT":0.00273346,"MEAN_MOTION_DDOT":0},{"OBJECT_NAME":"STARLINK-35865","OBJECT_ID":"2026-033F","EPOCH":"2026-03-05T00:26:57.634368","MEAN_MOTION":15.82077616,"ECCENTRICITY":0.00016926,"INCLINATION":42.997,"RA_OF_ASC_NODE":300.0985,"ARG_OF_PERICENTER":302.0354,"MEAN_ANOMALY":58.0353,"EPHEMERIS_TYPE":0,"CLASSIFICATION_TYPE":"U","NORAD_CAT_ID":67826,"ELEMENT_SET_NO":999,"REV_AT_EPOCH":388,"BSTAR":0.0021184673,"MEAN_MOTION_DOT":0.00472108,"MEAN_MOTION_DDOT":0}]
